start=new Date('2023-03-02T00:00:00.000Z').valueOf();
sats=[{"TLE_LINE1":"1 53673U 22105AB  23060.90995928  .00016411  00000-0  13075-2 0  9997","ECCENTRICITY":"0.00015900","TLE_LINE2":"2 53673  97.6528 304.0408 0001590  85.0450 275.0955 15.00424423 27668","APOAPSIS":"566.693","GP_ID":"227321234","SEMIMAJOR_AXIS":"6943.724","CENTER_NAME":"EARTH","FILE":"3848834","EPOCH":"2023-03-01T21:50:20.481792","LAUNCH_DATE":"2022-08-31","OBJECT_TYPE":"PAYLOAD","PERIAPSIS":"564.485","BSTAR":"0.00130750000000","INCLINATION":"97.6528","MEAN_MOTION_DDOT":"0.0000000000000","EPHEMERIS_TYPE":"0","DECAY_DATE":null,"MEAN_MOTION":"15.00424423","MEAN_ELEMENT_THEORY":"SGP4","OBJECT_NAME":"STARLINK-4456","ELEMENT_SET_NO":"999","MEAN_MOTION_DOT":"0.00016411","REV_AT_EPOCH":"2766","CLASSIFICATION_TYPE":"U","OBJECT_ID":"2022-105AB","RA_OF_ASC_NODE":"304.0408","NORAD_CAT_ID":"53673","REF_FRAME":"TEME","MEAN_ANOMALY":"275.0955","RCS_SIZE":"LARGE","TIME_SYSTEM":"UTC","SITE":"AFWTR","ARG_OF_PERICENTER":"85.0450","PERIOD":"95.973","COUNTRY_CODE":"US"},{"PERIOD":"95.921","COUNTRY_CODE":"US","RCS_SIZE":"LARGE","MEAN_ANOMALY":"248.7671","TIME_SYSTEM":"UTC","SITE":"AFWTR","ARG_OF_PERICENTER":"111.3733","ELEMENT_SET_NO":"999","OBJECT_NAME":"STARLINK-4620","MEAN_MOTION_DOT":"0.00017912","REV_AT_EPOCH":"2763","NORAD_CAT_ID":"53674","RA_OF_ASC_NODE":"303.5049","REF_FRAME":"TEME","CLASSIFICATION_TYPE":"U","OBJECT_ID":"2022-105AC","EPHEMERIS_TYPE":"0","MEAN_MOTION":"15.01235674","DECAY_DATE":null,"MEAN_ELEMENT_THEORY":"SGP4","INCLINATION":"97.6554","MEAN_MOTION_DDOT":"0.0000000000000","OBJECT_TYPE":"PAYLOAD","LAUNCH_DATE":"2022-08-31","BSTAR":"0.00139650000000","PERIAPSIS":"561.921","SEMIMAJOR_AXIS":"6941.222","FILE":"3848834","CENTER_NAME":"EARTH","EPOCH":"2023-03-01T21:46:59.632896","TLE_LINE2":"2 53674  97.6554 303.5049 0001680 111.3733 248.7671 15.01235674 27638","APOAPSIS":"564.253","ECCENTRICITY":"0.00016800","TLE_LINE1":"1 53674U 22105AC  23060.90763464  .00017912  00000-0  13965-2 0  9991","GP_ID":"227321985"},{"COUNTRY_CODE":"US","PERIOD":"95.921","SITE":"AFWTR","ARG_OF_PERICENTER":"111.1865","TIME_SYSTEM":"UTC","RCS_SIZE":"LARGE","MEAN_ANOMALY":"248.9514","RA_OF_ASC_NODE":"303.5075","REF_FRAME":"TEME","NORAD_CAT_ID":"53675","CLASSIFICATION_TYPE":"U","OBJECT_ID":"2022-105AD","REV_AT_EPOCH":"2763","MEAN_MOTION_DOT":"-0.00002992","ELEMENT_SET_NO":"999","OBJECT_NAME":"STARLINK-4617","MEAN_ELEMENT_THEORY":"SGP4","MEAN_MOTION":"15.01242111","DECAY_DATE":null,"EPHEMERIS_TYPE":"0","MEAN_MOTION_DDOT":"0.0000000000000","INCLINATION":"97.6557","BSTAR":"-0.00022852000000","PERIAPSIS":"562.058","OBJECT_TYPE":"PAYLOAD","LAUNCH_DATE":"2022-08-31","EPOCH":"2023-03-01T21:52:19.130592","FILE":"3848834","CENTER_NAME":"EARTH","SEMIMAJOR_AXIS":"6941.202","GP_ID":"227322732","APOAPSIS":"564.076","TLE_LINE2":"2 53675  97.6557 303.5075 0001453 111.1865 248.9514 15.01242111 27635","ECCENTRICITY":"0.00014530","TLE_LINE1":"1 53675U 22105AD  23060.91133253 -.00002992  00000-0 -22852-3 0  9990"},{"FILE":"3848834","CENTER_NAME":"EARTH","EPOCH":"2023-03-01T21:41:39.513984","SEMIMAJOR_AXIS":"6941.219","GP_ID":"227321484","APOAPSIS":"564.380","TLE_LINE2":"2 53676  97.6556 303.5008 0001868 103.6651 256.4782 15.01236655 27637","ECCENTRICITY":"0.00018680","TLE_LINE1":"1 53676U 22105AE  23060.90392956 -.00002071  00000-0 -15681-3 0  9997","MEAN_MOTION_DDOT":"0.0000000000000","INCLINATION":"97.6556","OBJECT_TYPE":"PAYLOAD","LAUNCH_DATE":"2022-08-31","BSTAR":"-0.00015681000000","PERIAPSIS":"561.787","REV_AT_EPOCH":"2763","NORAD_CAT_ID":"53676","REF_FRAME":"TEME","RA_OF_ASC_NODE":"303.5008","OBJECT_ID":"2022-105AE","CLASSIFICATION_TYPE":"U","ELEMENT_SET_NO":"999","OBJECT_NAME":"STARLINK-4621","MEAN_MOTION_DOT":"-0.00002071","DECAY_DATE":null,"MEAN_MOTION":"15.01236655","MEAN_ELEMENT_THEORY":"SGP4","EPHEMERIS_TYPE":"0","PERIOD":"95.921","COUNTRY_CODE":"US","SITE":"AFWTR","ARG_OF_PERICENTER":"103.6651","RCS_SIZE":"LARGE","MEAN_ANOMALY":"256.4782","TIME_SYSTEM":"UTC"},{"PERIOD":"95.921","COUNTRY_CODE":"US","SITE":"AFWTR","ARG_OF_PERICENTER":"85.3779","MEAN_ANOMALY":"274.7614","RCS_SIZE":"LARGE","TIME_SYSTEM":"UTC","REV_AT_EPOCH":"2763","CLASSIFICATION_TYPE":"U","OBJECT_ID":"2022-105AF","REF_FRAME":"TEME","RA_OF_ASC_NODE":"303.5069","NORAD_CAT_ID":"53677","OBJECT_NAME":"STARLINK-4579","ELEMENT_SET_NO":"999","MEAN_MOTION_DOT":"0.00009118","MEAN_MOTION":"15.01235614","DECAY_DATE":null,"MEAN_ELEMENT_THEORY":"SGP4","EPHEMERIS_TYPE":"0","MEAN_MOTION_DDOT":"0.0000000000000","INCLINATION":"97.6558","LAUNCH_DATE":"2022-08-31","OBJECT_TYPE":"PAYLOAD","PERIAPSIS":"562.062","BSTAR":"0.00071399000000","CENTER_NAME":"EARTH","FILE":"3848834","EPOCH":"2023-03-01T21:49:39.571392","SEMIMAJOR_AXIS":"6941.222","GP_ID":"227321734","TLE_LINE1":"1 53677U 22105AF  23060.90948578  .00009118  00000-0  71399-3 0  9990","TLE_LINE2":"2 53677  97.6558 303.5069 0001477  85.3779 274.7614 15.01235614 27631","ECCENTRICITY":"0.00014770","APOAPSIS":"564.112"},{"INCLINATION":"97.6558","MEAN_MOTION_DDOT":"0.0000000000000","OBJECT_TYPE":"PAYLOAD","LAUNCH_DATE":"2022-08-31","BSTAR":"-0.00070148000000","PERIAPSIS":"562.053","SEMIMAJOR_AXIS":"6941.238","FILE":"3848834","CENTER_NAME":"EARTH","EPOCH":"2023-03-01T13:39:05.205600","TLE_LINE2":"2 53678  97.6558 303.1705 0001513 108.2030 251.9359 15.01230505 27582","ECCENTRICITY":"0.00015130","APOAPSIS":"564.153","TLE_LINE1":"1 53678U 22105AG  23060.56881025 -.00009050  00000-0 -70148-3 0  9994","GP_ID":"227322485","PERIOD":"95.921","COUNTRY_CODE":"US","RCS_SIZE":"LARGE","MEAN_ANOMALY":"251.9359","TIME_SYSTEM":"UTC","SITE":"AFWTR","ARG_OF_PERICENTER":"108.2030","ELEMENT_SET_NO":"999","OBJECT_NAME":"STARLINK-4418","MEAN_MOTION_DOT":"-0.00009050","REV_AT_EPOCH":"2758","REF_FRAME":"TEME","NORAD_CAT_ID":"53678","RA_OF_ASC_NODE":"303.1705","OBJECT_ID":"2022-105AG","CLASSIFICATION_TYPE":"U","EPHEMERIS_TYPE":"0","DECAY_DATE":null,"MEAN_MOTION":"15.01230505","MEAN_ELEMENT_THEORY":"SGP4"},{"PERIOD":"95.921","COUNTRY_CODE":"US","MEAN_ANOMALY":"253.5446","RCS_SIZE":"LARGE","TIME_SYSTEM":"UTC","SITE":"AFWTR","ARG_OF_PERICENTER":"106.5956","OBJECT_NAME":"STARLINK-4632","ELEMENT_SET_NO":"999","MEAN_MOTION_DOT":"0.00008579","REV_AT_EPOCH":"2763","CLASSIFICATION_TYPE":"U","OBJECT_ID":"2022-105AH","REF_FRAME":"TEME","RA_OF_ASC_NODE":"303.5029","NORAD_CAT_ID":"53679","EPHEMERIS_TYPE":"0","MEAN_MOTION":"15.01239241","DECAY_DATE":null,"MEAN_ELEMENT_THEORY":"SGP4","INCLINATION":"97.6559","MEAN_MOTION_DDOT":"0.0000000000000","LAUNCH_DATE":"2022-08-31","OBJECT_TYPE":"PAYLOAD","PERIAPSIS":"561.953","BSTAR":"0.00067205000000","SEMIMAJOR_AXIS":"6941.211","CENTER_NAME":"EARTH","FILE":"3848834","EPOCH":"2023-03-01T21:44:19.408416","TLE_LINE1":"1 53679U 22105AH  23060.90578019  .00008579  00000-0  67205-3 0  9992","APOAPSIS":"564.199","TLE_LINE2":"2 53679  97.6559 303.5029 0001618 106.5956 253.5446 15.01239241 27638","ECCENTRICITY":"0.00016180","GP_ID":"227322233"},{"PERIOD":"95.923","COUNTRY_CODE":"US","SITE":"AFWTR","ARG_OF_PERICENTER":"104.1895","RCS_SIZE":"LARGE","MEAN_ANOMALY":"255.9617","TIME_SYSTEM":"UTC","REV_AT_EPOCH":"2760","REF_FRAME":"TEME","RA_OF_ASC_NODE":"303.2996","NORAD_CAT_ID":"53680","CLASSIFICATION_TYPE":"U","OBJECT_ID":"2022-105AJ","ELEMENT_SET_NO":"999","OBJECT_NAME":"STARLINK-4630","MEAN_MOTION_DOT":"-0.00004028","DECAY_DATE":null,"MEAN_MOTION":"15.01211843","MEAN_ELEMENT_THEORY":"SGP4","EPHEMERIS_TYPE":"0","MEAN_MOTION_DDOT":"0.0000000000000","INCLINATION":"97.6570","OBJECT_TYPE":"PAYLOAD","LAUNCH_DATE":"2022-08-31","BSTAR":"-0.00030954000000","PERIAPSIS":"561.362","FILE":"3848834","CENTER_NAME":"EARTH","EPOCH":"2023-03-01T16:45:44.482464","SEMIMAJOR_AXIS":"6941.295","GP_ID":"227320985","TLE_LINE2":"2 53680  97.6570 303.2996 0002590 104.1895 255.9617 15.01211843 27600","APOAPSIS":"564.958","ECCENTRICITY":"0.00025900","TLE_LINE1":"1 53680U 22105AJ  23060.69843151 -.00004028  00000-0 -30954-3 0  9990"},{"ELEMENT_SET_NO":"999","OBJECT_NAME":"STARLINK-4424","MEAN_MOTION_DOT":"-0.00014274","REV_AT_EPOCH":"2763","NORAD_CAT_ID":"53681","REF_FRAME":"TEME","RA_OF_ASC_NODE":"303.4912","CLASSIFICATION_TYPE":"U","OBJECT_ID":"2022-105AK","EPHEMERIS_TYPE":"0","DECAY_DATE":null,"MEAN_MOTION":"15.01212550","MEAN_ELEMENT_THEORY":"SGP4","PERIOD":"95.922","COUNTRY_CODE":"US","RCS_SIZE":"LARGE","MEAN_ANOMALY":"310.9823","TIME_SYSTEM":"UTC","ARG_OF_PERICENTER":"49.1645","SITE":"AFWTR","SEMIMAJOR_AXIS":"6941.293","FILE":"3848834","CENTER_NAME":"EARTH","EPOCH":"2023-03-01T21:39:19.657440","TLE_LINE2":"2 53681  97.6534 303.4912 0002808  49.1645 310.9823 15.01212550 27634","APOAPSIS":"565.107","ECCENTRICITY":"0.00028080","TLE_LINE1":"1 53681U 22105AK  23060.90231085 -.00014274  00000-0 -11103-2 0  9990","GP_ID":"227321235","INCLINATION":"97.6534","MEAN_MOTION_DDOT":"0.0000000000000","OBJECT_TYPE":"PAYLOAD","LAUNCH_DATE":"2022-08-31","BSTAR":"-0.00111030000000","PERIAPSIS":"561.209"},{"REV_AT_EPOCH":"2758","REF_FRAME":"TEME","RA_OF_ASC_NODE":"303.1671","NORAD_CAT_ID":"53682","OBJECT_ID":"2022-105AL","CLASSIFICATION_TYPE":"U","ELEMENT_SET_NO":"999","OBJECT_NAME":"STARLINK-4438","MEAN_MOTION_DOT":"0.00000415","DECAY_DATE":null,"MEAN_MOTION":"15.01248679","MEAN_ELEMENT_THEORY":"SGP4","EPHEMERIS_TYPE":"0","PERIOD":"95.920","COUNTRY_CODE":"US","ARG_OF_PERICENTER":"104.8493","SITE":"AFWTR","RCS_SIZE":"LARGE","MEAN_ANOMALY":"255.2902","TIME_SYSTEM":"UTC","FILE":"3848834","CENTER_NAME":"EARTH","EPOCH":"2023-03-01T13:28:47.323776","SEMIMAJOR_AXIS":"6941.182","GP_ID":"227321986","TLE_LINE2":"2 53682  97.6564 303.1671 0001540 104.8493 255.2902 15.01248679 27583","APOAPSIS":"564.116","ECCENTRICITY":"0.00015400","TLE_LINE1":"1 53682U 22105AL  23060.56165884  .00000415  00000-0  36882-4 0  9999","MEAN_MOTION_DDOT":"0.0000000000000","INCLINATION":"97.6564","OBJECT_TYPE":"PAYLOAD","LAUNCH_DATE":"2022-08-31","BSTAR":"0.00003688200000","PERIAPSIS":"561.978"}];
